[{"OBJECT_NAME":"STARLINK-5960","OBJECT_ID":"2023-083AW","EPOCH":"2026-03-09T22:00:01.999584","MEAN_MOTION":15.06681708,"ECCENTRICITY":0.00012025,"INCLINATION":43.0005,"RA_OF_ASC_NODE":67.3488,"ARG_OF_PERICENTER":306.9912,"MEAN_ANOMALY":164.9708,"EPHEMERIS_TYPE":0,"CLASSIFICATION_TYPE":"U","NORAD_CAT_ID":56920,"ELEMENT_SET_NO":999,"REV_AT_EPOCH":577,"BSTAR":0.0042766737,"MEAN_MOTION_DOT":0.00064947,"MEAN_MOTION_DDOT":0},{"OBJECT_NAME":"UPPER FREE FLYER","OBJECT_ID":"2018-099F","EPOCH":"2026-03-09T16:53:56.769792","MEAN_MOTION":15.10728091,"ECCENTRICITY":0.00115819,"INCLINATION":97.4495,"RA_OF_ASC_NODE":120.4613,"ARG_OF_PERICENTER":289.4209,"MEAN_ANOMALY":70.5769,"EPHEMERIS_TYPE":0,"CLASSIFICATION_TYPE":"U","NORAD_CAT_ID":43763,"ELEMENT_SET_NO":999,"REV_AT_EPOCH":39752,"BSTAR":0.00029221901,"MEAN_MOTION_DOT":4.788e-5,"MEAN_MOTION_DDOT":0}]
